[Satellite]
VERSION=1.1
NAME=HAVELSAT
NICKNAME=HAVELSAT
TLE1=1 42700U 98067LH  18020.55397705  .00018969  00000-0  20079-3 0  9999
TLE2=2 42700  51.6383  25.5682 0005698  54.9991 305.1538 15.64164462 38863
